NUSAT-1 (FRESCO)        
1 41557U 16033B   21348.50898238  .00002200  00000+0  76696-4 0  9997
2 41557  97.3928  81.5634 0011276 321.7518  93.6203 15.30669513309063
BEESAT-4                
1 41619U 16040W   21347.92365175  .00002486  00000+0  96925-4 0  9991
2 41619  97.2471  38.8747 0011748  61.5694 298.6727 15.26801054292389
CAS-2T & KS-1Q          
1 41847U 16066G   21347.89561459  .00000102  00000+0  24992-4 0  9999
2 41847  98.5791  47.5561 0365680  44.7260 318.2805 14.38299514267675
NAYIF-1 (EO-88)         
1 42017U 17008BX  21348.42414822  .00003339  00000+0  11881-3 0  9994
2 42017  97.2968  52.7442 0005812 173.1333 186.9988 15.29642230268759
ZHUHAI-1 02 (CAS-4B)    
1 42759U 17034B   21348.51823792  .00000701  00000+0  54881-4 0  9994
2 42759  43.0181 270.8939 0008261 218.7287 310.3901 15.10611240248378
ZHUHAI-1 01 (CAS-4A)    
1 42761U 17034D   21348.29533318  .00000517  00000+0  43880-4 0  9996
2 42761  43.0180 271.0431 0008770 218.2850 283.0046 15.10696251248344
MAX VALIER SAT          
1 42778U 17036P   21348.34412292  .00001659  00000+0  70391-4 0  9994
2 42778  97.2330  30.9057 0009904 259.6035 100.4087 15.24426153248681
RADFXSAT (FOX-1B)       
1 43017U 17073E   21348.00084274  .00000803  00000+0  65874-4 0  9990
2 43017  97.6924 244.7411 0254803  74.3705 288.5468 14.80004727219674
FOX-1D (AO-92)          
1 43137U 18004AC  21348.10627359  .00001828  00000+0  73426-4 0  9996
2 43137  97.3912  60.2304 0007084 303.3834  56.6726 15.26223282218049
DIWATA-2B               
1 43678U 18084H   21348.48172412  .00000182  00000+0  23797-4 0  9998
2 43678  97.9465 114.9558 0010020 168.4256 191.7179 14.91850749170278
ES'HAIL 2               
1 43700U 18090A   21348.07313275  .00000156  00000+0  00000+0 0  9998
2 43700   0.0139 302.6961 0002132 340.1725 212.2369  1.00272278 11417
FOX-1CLIFF (AO-95)      
1 43770U 18099N   21348.44190424  .00000151  00000+0  18673-4 0  9999
2 43770  97.6465  54.4846 0014677 170.5477 189.6023 14.95586763165350
ITASAT 1                
1 43786U 18099AE  21348.46142249  .00000650  00000+0  63174-4 0  9990
2 43786  97.6486  55.3062 0015626 163.5744 196.5987 14.95844356165399
JY1SAT (JO-97)          
1 43803U 18099AX  21348.45961941  .00000727  00000+0  69475-4 0  9992
2 43803  97.6447  55.0419 0015583 163.2788 196.8950 14.96147028165404
UWE-4                   
1 43880U 18111E   21347.98749960 -.00000020  00000+0  32717-5 0  9991
2 43880  97.6781 252.5565 0011031 218.7977 141.2454 14.97172790159946
NEXUS (FO-99)           
1 43937U 19003F   21347.57013795  .00002653  00000+0  10229-3 0  9995
2 43937  97.1561  23.4736 0024267  96.3537 264.0467 15.26889520161582
PSAT2 (NO-104)          
1 44354U 19036R   21347.45478446  .00013695  00000+0  16239-3 0  9995
2 44354  28.5265   7.5575 0296389  66.7775 296.3745 15.21302863136180
BRICSAT2 (NO-103)       
1 44355U 19036S   21348.18939118  .00040505 -60555-5  31495-3 0  9994
2 44355  28.5250 279.9112 0198269 209.5374 149.3898 15.47901704137114
JAISAT-1                
1 44419U 19038F   21347.86669545  .00001784  00000+0  99881-4 0  9997
2 44419  97.6132 312.2301 0022200  55.7797 304.5534 15.14568354134947
DUCHIFAT-3              
1 44854U 19089C   21348.49868245  .00000699  00000+0  61632-4 0  9991
2 44854  36.9631 115.6357 0006822 164.0580 196.0379 14.99851249110149
CAS-6 (TO-108)          
1 44881U 19093C   21348.46421444  .00000089  00000+0  18112-4 0  9997
2 44881  97.9116  65.2051 0016436  70.0569 290.2418 14.81521536107387
RS-44 & BREEZE-KM R/B   
1 44909U 19096E   21347.50862243  .00000014  00000+0  80959-5 0  9998
2 44909  82.5205 353.8364 0218043  34.7449 326.7673 12.79711425 91723
ORBITAL FACTORY 2 (OF-2)
1 45113U 19071C   21347.89771852  .00003145  00000+0  93436-4 0  9997
2 45113  51.6409 246.2711 0010665 216.7219 143.3035 15.37900832104765
HUSKYSAT-1 (HO-107)     
1 45119U 19071J   21347.91431489  .00003594  00000+0  10574-3 0  9994
2 45119  51.6408 245.6201 0010250 213.1607 146.8735 15.37754813104760
BY70-2                  
1 45857U 20042B   21348.47197532  .00001431  00000+0  20691-3 0  9992
2 45857  97.9726  62.3032 0010233   0.9521 359.1709 14.77678665 78122
SALSAT                  
1 46495U 20068K   21347.88036910  .00000155  00000+0  15803-4 0  9997
2 46495  97.7105 284.4739 0016603 178.4127 181.7153 15.03709294 66291
BY70-3                  
1 46839U 20079N   21348.43671872  .00003750  00000+0  11085-3 0  9996
2 46839  97.2241  58.7389 0005211 282.8791 205.6499 15.35534576 61807
RADFXSAT-2 (AO-109)     
1 47311U 21002C   21347.69836733  .00001154  00000+0  60577-4 0  9992
2 47311  60.6860 339.8090 0033918 138.7038 221.6624 15.22542676 50154
UVSQ-SAT                
1 47438U 21006AB  21348.15781711  .00001106  00000+0  64919-4 0  9994
2 47438  97.4658  45.9950 0012266 190.4895 169.6083 15.13729031 49235
DIY-1 (ARDUIQUBE)       
1 47963U 21022AH  21347.94074748  .00003265  00000+0  21204-3 0  9993
2 47963  97.5456 247.0732 0020593  52.7630 307.5473 15.08570681 38948
